{
  "type": "FeatureCollection",
  "features": [
    {
      "type": "Feature",
      "properties": {
        "norad_id": 30090,
        "name": "FENGYUN 1C DEB",
        "group": "fengyun-1c-debris",
        "lat": -73.26356999637139,
        "lon": -46.56942482089088,
        "alt_km": 842.0630892056288,
        "timestamp": "2025-12-19T06:59:44.182271+00:00",
        "meta_object_name": "FENGYUN 1C DEB",
        "meta_object_id": "1999-025QT",
        "meta_epoch": "2025-12-18T11:35:44.914272",
        "meta_mean_motion": 14.29039853,
        "meta_eccentricity": 0.005816,
        "meta_inclination": 99.409,
        "meta_ra_of_asc_node": 166.0236,
        "meta_arg_of_pericenter": 95.4635,
        "meta_mean_anomaly": 324.2573,
        "meta_ephemeris_type": 0,
        "meta_classification_type": "U",
        "meta_norad_cat_id": 30090,
        "meta_element_set_no": 999,
        "meta_rev_at_epoch": 98352,
        "meta_bstar": 0.00027280525,
        "meta_mean_motion_dot": 6.53e-06,
        "meta_mean_motion_ddot": 0,
        "tle_line1": "1 30090U 99025QT  25352.48315873  .00000653  00000+0  27281-3 0  9999",
        "tle_line2": "2 30090  99.4090 166.0236 0058160  95.4635 324.2573 14.29039853983528"
      },
      "geometry": {
        "type": "Point",
        "coordinates": [
          -46.56942482089088,
          -73.26356999637139
        ]
      }
    },
    {
      "type": "Feature",
      "properties": {
        "norad_id": 30092,
        "name": "FENGYUN 1C DEB",
        "group": "fengyun-1c-debris",
        "lat": 80.67482721887242,
        "lon": 65.904196307734,
        "alt_km": 797.6619263964067,
        "timestamp": "2025-12-19T06:59:44.182281+00:00",
        "meta_object_name": "FENGYUN 1C DEB",
        "meta_object_id": "1999-025QV",
        "meta_epoch": "2025-12-18T10:48:55.420416",
        "meta_mean_motion": 14.39158751,
        "meta_eccentricity": 0.00826846,
        "meta_inclination": 98.923,
        "meta_ra_of_asc_node": 171.938,
        "meta_arg_of_pericenter": 233.4391,
        "meta_mean_anomaly": 185.9912,
        "meta_ephemeris_type": 0,
        "meta_classification_type": "U",
        "meta_norad_cat_id": 30092,
        "meta_element_set_no": 999,
        "meta_rev_at_epoch": 98831,
        "meta_bstar": 0.00045100053,
        "meta_mean_motion_dot": 1.404e-05,
        "meta_mean_motion_ddot": 0,
        "tle_line1": "1 30092U 99025QV  25352.45064144  .00001404  00000+0  45100-3 0  9995",
        "tle_line2": "2 30092  98.9230 171.9380 0082684 233.4391 185.9912 14.39158751988317"
      },
      "geometry": {
        "type": "Point",
        "coordinates": [
          65.904196307734,
          80.67482721887242
        ]
      }
    },
    {
      "type": "Feature",
      "properties": {
        "norad_id": 30093,
        "name": "FENGYUN 1C DEB",
        "group": "fengyun-1c-debris",
        "lat": 53.95603927580542,
        "lon": -144.25271782464156,
        "alt_km": 746.6644491044144,
        "timestamp": "2025-12-19T06:59:44.182292+00:00",
        "meta_object_name": "FENGYUN 1C DEB",
        "meta_object_id": "1999-025QW",
        "meta_epoch": "2025-12-18T23:01:39.636192",
        "meta_mean_motion": 14.43725717,
        "meta_eccentricity": 0.00697664,
        "meta_inclination": 98.868,
        "meta_ra_of_asc_node": 227.7902,
        "meta_arg_of_pericenter": 319.1315,
        "meta_mean_anomaly": 170.5207,
        "meta_ephemeris_type": 0,
        "meta_classification_type": "U",
        "meta_norad_cat_id": 30093,
        "meta_element_set_no": 999,
        "meta_rev_at_epoch": 98893,
        "meta_bstar": 0.00067706155,
        "meta_mean_motion_dot": 2.32e-05,
        "meta_mean_motion_ddot": 0,
        "tle_line1": "1 30093U 99025QW  25352.95948653  .00002320  00000+0  67706-3 0  9991",
        "tle_line2": "2 30093  98.8680 227.7902 0069766 319.1315 170.5207 14.43725717988932"
      },
      "geometry": {
        "type": "Point",
        "coordinates": [
          -144.25271782464156,
          53.95603927580542
        ]
      }
    },
    {
      "type": "Feature",
      "properties": {
        "norad_id": 30095,
        "name": "FENGYUN 1C DEB",
        "group": "fengyun-1c-debris",
        "lat": -1.718180034721197,
        "lon": -84.31277281009334,
        "alt_km": 545.1927499363437,
        "timestamp": "2025-12-19T06:59:44.182302+00:00",
        "meta_object_name": "FENGYUN 1C DEB",
        "meta_object_id": "1999-025QY",
        "meta_epoch": "2025-12-18T18:02:31.911072",
        "meta_mean_motion": 14.82202163,
        "meta_eccentricity": 0.0164634,
        "meta_inclination": 99.2207,
        "meta_ra_of_asc_node": 274.7866,
        "meta_arg_of_pericenter": 313.5829,
        "meta_mean_anomaly": 45.1811,
        "meta_ephemeris_type": 0,
        "meta_classification_type": "U",
        "meta_norad_cat_id": 30095,
        "meta_element_set_no": 999,
        "meta_rev_at_epoch": 99424,
        "meta_bstar": 0.001694388,
        "meta_mean_motion_dot": 0.00017075,
        "meta_mean_motion_ddot": 0,
        "tle_line1": "1 30095U 99025QY  25352.75175823  .00017075  00000+0  16944-2 0  9992",
        "tle_line2": "2 30095  99.2207 274.7866 0164634 313.5829  45.1811 14.82202163994240"
      },
      "geometry": {
        "type": "Point",
        "coordinates": [
          -84.31277281009334,
          -1.718180034721197
        ]
      }
    },
    {
      "type": "Feature",
      "properties": {
        "norad_id": 30096,
        "name": "FENGYUN 1C DEB",
        "group": "fengyun-1c-debris",
        "lat": -76.20812868056808,
        "lon": -148.13227480622152,
        "alt_km": 753.7573522719977,
        "timestamp": "2025-12-19T06:59:44.182313+00:00",
        "meta_object_name": "FENGYUN 1C DEB",
        "meta_object_id": "1999-025QZ",
        "meta_epoch": "2025-12-18T18:02:46.741632",
        "meta_mean_motion": 14.31701735,
        "meta_eccentricity": 0.0079401,
        "meta_inclination": 99.1474,
        "meta_ra_of_asc_node": 72.3247,
        "meta_arg_of_pericenter": 214.9291,
        "meta_mean_anomaly": 144.6666,
        "meta_ephemeris_type": 0,
        "meta_classification_type": "U",
        "meta_norad_cat_id": 30096,
        "meta_element_set_no": 999,
        "meta_rev_at_epoch": 98632,
        "meta_bstar": 0.00025394319,
        "meta_mean_motion_dot": 6.52e-06,
        "meta_mean_motion_ddot": 0,
        "tle_line1": "1 30096U 99025QZ  25352.75192988  .00000652  00000+0  25394-3 0  9997",
        "tle_line2": "2 30096  99.1474  72.3247 0079401 214.9291 144.6666 14.31701735986321"
      },
      "geometry": {
        "type": "Point",
        "coordinates": [
          -148.13227480622152,
          -76.20812868056808
        ]
      }
    },
    {
      "type": "Feature",
      "properties": {
        "norad_id": 30099,
        "name": "FENGYUN 1C DEB",
        "group": "fengyun-1c-debris",
        "lat": 5.089276228380372,
        "lon": 64.66521103112414,
        "alt_km": 841.1468867040967,
        "timestamp": "2025-12-19T06:59:44.182323+00:00",
        "meta_object_name": "FENGYUN 1C DEB",
        "meta_object_id": "1999-025RC",
        "meta_epoch": "2025-12-18T16:33:25.490304",
        "meta_mean_motion": 14.25945454,
        "meta_eccentricity": 0.00613391,
        "meta_inclination": 98.5402,
        "meta_ra_of_asc_node": 64.8457,
        "meta_arg_of_pericenter": 227.1301,
        "meta_mean_anomaly": 291.1536,
        "meta_ephemeris_type": 0,
        "meta_classification_type": "U",
        "meta_norad_cat_id": 30099,
        "meta_element_set_no": 999,
        "meta_rev_at_epoch": 98274,
        "meta_bstar": 0.00023531779,
        "meta_mean_motion_dot": 5.29e-06,
        "meta_mean_motion_ddot": 0,
        "tle_line1": "1 30099U 99025RC  25352.68987836  .00000529  00000+0  23532-3 0  9991",
        "tle_line2": "2 30099  98.5402  64.8457 0061339 227.1301 291.1536 14.25945454982743"
      },
      "geometry": {
        "type": "Point",
        "coordinates": [
          64.66521103112414,
          5.089276228380372
        ]
      }
    },
    {
      "type": "Feature",
      "properties": {
        "norad_id": 30102,
        "name": "FENGYUN 1C DEB",
        "group": "fengyun-1c-debris",
        "lat": 77.51354755482778,
        "lon": -137.53006507092272,
        "alt_km": 857.7763295911054,
        "timestamp": "2025-12-19T06:59:44.182334+00:00",
        "meta_object_name": "FENGYUN 1C DEB",
        "meta_object_id": "1999-025RF",
        "meta_epoch": "2025-12-18T14:13:54.994368",
        "meta_mean_motion": 14.22139135,
        "meta_eccentricity": 0.01413586,
        "meta_inclination": 98.3789,
        "meta_ra_of_asc_node": 0.081,
        "meta_arg_of_pericenter": 343.1159,
        "meta_mean_anomaly": 140.7174,
        "meta_ephemeris_type": 0,
        "meta_classification_type": "U",
        "meta_norad_cat_id": 30102,
        "meta_element_set_no": 999,
        "meta_rev_at_epoch": 98041,
        "meta_bstar": 0.00025659961,
        "meta_mean_motion_dot": 5.87e-06,
        "meta_mean_motion_ddot": 0,
        "tle_line1": "1 30102U 99025RF  25352.59299762  .00000587  00000+0  25660-3 0  9998",
        "tle_line2": "2 30102  98.3789   0.0810 0141358 343.1159 140.7174 14.22139135980416"
      },
      "geometry": {
        "type": "Point",
        "coordinates": [
          -137.53006507092272,
          77.51354755482778
        ]
      }
    }
  ]
}